NORAD_CAT_ID,OBJECT_NAME,OBJECT_TYPE,EPOCH,MEAN_MOTION,ECCENTRICITY,INCLINATION,RA_OF_ASC_NODE,ARG_OF_PERICENTER,MEAN_ANOMALY,BSTAR,MEAN_MOTION_DOT,MEAN_MOTION_DDOT,TLE_LINE0,TLE_LINE1,TLE_LINE2,SEMIMAJOR_AXIS,PERIOD,APOGEE,PERIGEE,DECAYED
50199.0,STARLINK-3270,PAYLOAD,2024-05-08 20:09:25,15.08843449,0.0001268,53.216,6.1939,94.9504,265.1633,0.00014752,2.061e-05,0.0,0 STARLINK-3270,1 50199U 21125AV  24129.83988386  .00002061  00000-0  14752-3 0  9997,2 50199  53.2160   6.1939 0001268  94.9504 265.1633 15.08843449135123,6917.87,95.437,540.612,538.858,0.0
50199.0,STARLINK-3270,PAYLOAD,2024-05-08 21:44:48,15.08847002,0.0001319,53.2169,5.8968,90.4731,269.6412,6.5509e-05,7.55e-06,0.0,0 STARLINK-3270,1 50199U 21125AV  24129.90612203  .00000755  00000-0  65509-4 0  9992,2 50199  53.2169   5.8968 0001319  90.4731 269.6412 15.08847002135617,6917.859,95.437,540.636,538.812,0.0
50199.0,STARLINK-3270,PAYLOAD,2024-05-09 08:52:31,15.08846563,0.0001456,53.2176,3.8172,73.5451,286.5701,9.7569e-05,1.265e-05,0.0,0 STARLINK-3270,1 50199U 21125AV  24130.36980347  .00001265  00000-0  97569-4 0  9999,2 50199  53.2176   3.8172 0001456  73.5451 286.5701 15.08846563135680,6917.86,95.437,540.733,538.718,0.0
50199.0,STARLINK-3270,PAYLOAD,2024-05-09 20:00:13,15.08841445,0.0001527,53.2176,1.7336,83.7941,276.3225,0.00010355,1.36e-05,0.0,0 STARLINK-3270,1 50199U 21125AV  24130.83348609  .00001360  00000-0  10355-3 0  9993,2 50199  53.2176   1.7336 0001527  83.7941 276.3225 15.08841445135272,6917.876,95.437,540.797,538.685,0.0
50199.0,STARLINK-3270,PAYLOAD,2024-05-09 21:35:36,15.08844491,0.0001185,53.2184,1.4335,102.0548,258.0577,3.7636e-05,3.11e-06,0.0,0 STARLINK-3270,1 50199U 21125AV  24130.89972371  .00000311  00000-0  37636-4 0  9995,2 50199  53.2184   1.4335 0001185 102.0548 258.0577 15.08844491135760,6917.867,95.437,540.551,538.912,0.0
50199.0,STARLINK-3270,PAYLOAD,2024-05-10 08:43:17,15.08844321,0.0001128,53.2169,359.3539,96.9412,263.1709,3.9637e-05,3.43e-06,0.0,0 STARLINK-3270,1 50199U 21125AV  24131.36340199  .00000343  00000-0  39637-4 0  9993,2 50199  53.2169 359.3539 0001128  96.9412 263.1709 15.08844321135836,6917.867,95.437,540.513,538.952,0.0
50199.0,STARLINK-3270,PAYLOAD,2024-05-10 21:26:22,15.08850495,0.0001317,53.2169,356.9776,88.851,271.2633,8.5944e-05,1.081e-05,0.0,0 STARLINK-3270,1 50199U 21125AV  24131.89332125  .00001081  00000-0  85944-4 0  9993,2 50199  53.2169 356.9776 0001317  88.8510 271.2633 15.08850495135915,6917.848,95.437,540.624,538.802,0.0
50199.0,STARLINK-3270,PAYLOAD,2024-05-11 00:37:08,15.08871772,0.0001325,53.2186,356.3823,87.4325,272.6819,0.00050908,7.83e-05,0.0,0 STARLINK-3270,1 50199U 21125AV  24132.02579287  .00007830  00000-0  50908-3 0  9990,2 50199  53.2186 356.3823 0001325  87.4325 272.6819 15.08871772135450,6917.783,95.436,540.565,538.732,0.0
50199.0,STARLINK-3270,PAYLOAD,2024-05-11 21:17:05,15.08910503,0.0001427,53.2167,352.5187,73.7782,286.3367,0.00095185,0.00014922,0.0,0 STARLINK-3270,1 50199U 21125AV  24132.88687432  .00014922  00000-0  95185-3 0  9992,2 50199  53.2167 352.5187 0001427  73.7782 286.3367 15.08910503135588,6917.665,95.433,540.517,538.543,0.0
50199.0,STARLINK-3270,PAYLOAD,2024-05-12 00:27:52,15.08878557,0.0001634,53.217,351.9221,84.0053,276.1126,0.00021287,3.105e-05,0.0,0 STARLINK-3270,1 50199U 21125AV  24133.01935932  .00003105  00000-0  21287-3 0  9992,2 50199  53.2170 351.9221 0001634  84.0053 276.1126 15.08878557135605,6917.763,95.435,540.758,538.497,0.0
50199.0,STARLINK-3270,PAYLOAD,2024-05-12 21:07:57,15.08784465,0.0001393,53.2169,348.0549,94.7065,265.4086,-0.001239,-0.00019922,0.0,0 STARLINK-3270,1 50199U 21125AV  24133.88052820 -.00019922  00000-0 -12390-2 0  9993,2 50199  53.2169 348.0549 0001393  94.7065 265.4086 15.08784465135730,6918.05,95.441,540.879,538.951,0.0
50199.0,STARLINK-3270,PAYLOAD,2024-05-13 06:40:16,15.08793291,0.0001044,53.2175,346.2704,98.1721,261.9389,-0.00073207,-0.00011905,0.0,0 STARLINK-3270,1 50199U 21125AV  24134.27797343 -.00011905  00000-0 -73207-3 0  9991,2 50199  53.2175 346.2704 0001044  98.1721 261.9389 15.08793291135790,6918.023,95.441,540.61,539.166,0.0
50199.0,STARLINK-3270,PAYLOAD,2024-05-13 14:37:12,15.08804285,5.34e-05,53.2168,344.781,90.5695,269.5358,-0.00016238,-2.868e-05,0.0,0 STARLINK-3270,1 50199U 21125AV  24134.60917675 -.00002868  00000-0 -16238-3 0  9999,2 50199  53.2168 344.7810 0000534  90.5695 269.5358 15.08804285136328,6917.99,95.44,540.224,539.485,0.0
50199.0,STARLINK-3270,PAYLOAD,2024-05-13 20:58:45,15.08819907,0.0001261,53.2173,343.596,107.6253,252.4877,0.00029493,4.407e-05,0.0,0 STARLINK-3270,1 50199U 21125AV  24134.87413842  .00004407  00000-0  29493-3 0  9991,2 50199  53.2173 343.5960 0001261 107.6253 252.4877 15.08819907136363,6917.942,95.439,540.679,538.934,0.0
50199.0,STARLINK-3270,PAYLOAD,2024-05-14 06:31:04,15.0883224,0.0001458,53.2173,341.8123,110.521,249.5939,0.00015995,2.258e-05,0.0,0 STARLINK-3270,1 50199U 21125AV  24135.27157502  .00002258  00000-0  15995-3 0  9998,2 50199  53.2173 341.8123 0001458 110.5210 249.5939 15.08832240135943,6917.904,95.438,540.778,538.76,0.0
50199.0,STARLINK-3270,PAYLOAD,2024-05-14 22:24:55,15.08844047,9.68e-05,53.2167,338.8375,111.6142,248.4954,0.00092947,0.00014537,0.0,0 STARLINK-3270,1 50199U 21125AV  24135.93398005  .00014537  00000-0  92947-3 0  9991,2 50199  53.2167 338.8375 0000968 111.6142 248.4954 15.08844047136520,6917.868,95.437,540.403,539.063,0.0
50199.0,STARLINK-3270,PAYLOAD,2024-05-15 00:00:18,15.08857646,9.91e-05,53.2164,338.5399,112.918,247.1917,0.00092111,0.00014409,0.0,0 STARLINK-3270,1 50199U 21125AV  24136.00021624  .00014409  00000-0  92111-3 0  9991,2 50199  53.2164 338.5399 0000991 112.9180 247.1917 15.08857646136054,6917.826,95.436,540.377,539.006,0.0
50199.0,STARLINK-3270,PAYLOAD,2024-05-15 20:40:18,15.08856263,6.74e-05,53.2185,334.6715,51.4959,308.6093,0.0001567,2.208e-05,0.0,0 STARLINK-3270,1 50199U 21125AV  24136.86132769  .00002208  00000-0  15670-3 0  9997,2 50199  53.2185 334.6715 0000674  51.4959 308.6093 15.08856263136181,6917.831,95.437,540.162,539.229,0.0
50199.0,STARLINK-3270,PAYLOAD,2024-05-16 12:34:10,15.08838497,0.0001235,53.2153,331.6984,76.6642,283.4487,-0.00025426,-4.332e-05,0.0,0 STARLINK-3270,1 50199U 21125AV  24137.52373157 -.00004332  00000-0 -25426-3 0  9991,2 50199  53.2153 331.6984 0001235  76.6642 283.4487 15.08838497136280,6917.885,95.438,540.604,538.896,0.0
50199.0,STARLINK-3270,PAYLOAD,2024-05-17 12:24:58,15.08830622,0.000134,53.2166,327.2403,87.1446,272.97,-6.1866e-05,-1.272e-05,0.0,0 STARLINK-3270,1 50199U 21125AV  24138.51733918 -.00001272  00000-0 -61866-4 0  9995,2 50199  53.2166 327.2403 0001340  87.1446 272.9700 15.08830622136910,6917.909,95.438,540.701,538.847,0.0
50199.0,STARLINK-3270,PAYLOAD,2024-05-17 18:46:30,15.08835684,8.36e-05,53.2163,326.0524,75.2474,284.861,-0.00011785,-2.163e-05,0.0,0 STARLINK-3270,1 50199U 21125AV  24138.78229709 -.00002163  00000-0 -11785-3 0  9996,2 50199  53.2163 326.0524 0000836  75.2474 284.8610 15.08835684136472,6917.894,95.438,540.337,539.18,0.0
50199.0,STARLINK-3270,PAYLOAD,2024-05-18 05:54:12,15.08840464,0.0001526,53.217,323.9679,90.931,269.1857,5.6617e-05,6.13e-06,0.0,0 STARLINK-3270,1 50199U 21125AV  24139.24597787  .00000613  00000-0  56617-4 0  9992,2 50199  53.2170 323.9679 0001526  90.9310 269.1857 15.08840464137020,6917.879,95.438,540.8,538.688,0.0
50199.0,STARLINK-3270,PAYLOAD,2024-05-18 18:37:16,15.08866473,0.0001004,53.214,321.5902,70.3354,289.7746,0.00077145,0.0001202,0.0,0 STARLINK-3270,1 50199U 21125AV  24139.77588727  .00012020  00000-0  77145-3 0  9997,2 50199  53.2140 321.5902 0001004  70.3354 289.7746 15.08866473136629,6917.799,95.436,540.359,538.97,0.0
50199.0,STARLINK-3270,PAYLOAD,2024-05-18 21:48:02,15.08870557,0.0001407,53.214,320.9951,84.1768,275.9385,0.00079962,0.00012471,0.0,0 STARLINK-3270,1 50199U 21125AV  24139.90836377  .00012471  00000-0  79962-3 0  9998,2 50199  53.2140 320.9951 0001407  84.1768 275.9385 15.08870557137125,6917.787,95.436,540.625,538.679,0.0
50199.0,STARLINK-3270,PAYLOAD,2024-05-19 18:28:04,15.08832552,8.21e-05,53.2171,317.1281,102.245,257.8634,-0.00017144,-3.014e-05,0.0,0 STARLINK-3270,1 50199U 21125AV  24140.76949782 -.00003014  00000-0 -17144-3 0  9998,2 50199  53.2171 317.1281 0000821 102.2450 257.8634 15.08832552136771,6917.903,95.438,540.336,539.2,0.0
50199.0,STARLINK-3270,PAYLOAD,2024-05-20 11:57:19,15.08838248,7.96e-05,53.2163,313.8574,109.2767,250.8312,0.00039767,6.047e-05,0.0,0 STARLINK-3270,1 50199U 21125AV  24141.49814020  .00006047  00000-0  39767-3 0  9997,2 50199  53.2163 313.8574 0000796 109.2767 250.8312 15.08838248137369,6917.886,95.438,540.301,539.2,0.0
50199.0,STARLINK-3270,PAYLOAD,2024-05-20 18:18:51,15.08859335,8.75e-05,53.2162,312.669,108.0655,252.0433,0.0011954,0.00018798,0.0,0 STARLINK-3270,1 50199U 21125AV  24141.76309745  .00018798  00000-0  11954-2 0  9993,2 50199  53.2162 312.6690 0000875 108.0655 252.0433 15.08859335136924,6917.821,95.436,540.292,539.081,0.0
50199.0,STARLINK-3270,PAYLOAD,2024-05-21 11:48:06,15.08846708,7.33e-05,53.2164,309.397,84.6152,275.4923,0.00032552,4.898e-05,0.0,0 STARLINK-3270,1 50199U 21125AV  24142.49173820  .00004898  00000-0  32552-3 0  9991,2 50199  53.2164 309.3970 0000733  84.6152 275.4923 15.08846708137030,6917.86,95.437,540.232,539.218,0.0
50199.0,STARLINK-3270,PAYLOAD,2024-05-21 14:58:52,15.08848027,7.37e-05,53.2166,308.801,96.5557,263.5519,0.00040493,6.164e-05,0.0,0 STARLINK-3270,1 50199U 21125AV  24142.62421792  .00006164  00000-0  40493-3 0  9991,2 50199  53.2166 308.8010 0000737  96.5557 263.5519 15.08848027137536,6917.856,95.437,540.231,539.211,0.0
50199.0,STARLINK-3270,PAYLOAD,2024-05-21 16:34:15,15.08842246,6.94e-05,53.2167,308.5052,87.0892,273.018,0.00093511,0.00014627,0.0,0 STARLINK-3270,1 50199U 21125AV  24142.69045923  .00014627  00000-0  93511-3 0  9998,2 50199  53.2167 308.5052 0000694  87.0892 273.0180 15.08842246137547,6917.874,95.437,540.219,539.258,0.0
